GSAT0101 (PRN E11)      
1 37846U 11060A   21286.88510705 -.00000096  00000-0  00000-0 0  9995
2 37846  56.8962  28.0524 0000558  31.6478 328.3646  1.70475011 62011
GSAT0102 (PRN E12)      
1 37847U 11060B   21287.39327894 -.00000098  00000-0  00000+0 0  9999
2 37847  56.8973  28.0380 0002018 298.2419  60.0356  1.70475271 62143
GSAT0103 (PRN E19)      
1 38857U 12055A   21286.92605218  .00000024  00000-0  00000-0 0  9992
2 38857  55.0691 148.4792 0001637 250.6742 109.3974  1.70473738 55909
GSAT0104 (PRN E20)      
1 38858U 12055B   21286.89657179  .00000024  00000-0  00000+0 0  9991
2 38858  55.0693 148.4814 0000939 113.5218 246.5774  1.70474069 56019
GSAT0201 (PRN E18)      
1 40128U 14050A   21287.42535411 -.00000092  00000-0  00000+0 0  9991
2 40128  50.4215 342.0850 1639678 115.5095 262.3424  1.85519104 48595
GSAT0202 (PRN E14)      
1 40129U 14050B   21288.22626787 -.00000091  00000-0  00000-0 0  9998
2 40129  50.4502 341.1062 1636717 116.3446 261.3783  1.85519848 48839
GSAT0203 (PRN E26)      
1 40544U 15017A   21287.84008927 -.00000100  00000-0  00000-0 0  9991
2 40544  56.6912  28.0933 0003972 227.3765 132.5971  1.70475015 40110
GSAT0204 (PRN E22)      
1 40545U 15017B   21288.67917747 -.00000103  00000-0  00000-0 0  9996
2 40545  56.6968  28.0816 0004125 212.6332 147.3472  1.70475777  3170
GSAT0205 (PRN E24)      
1 40889U 15045A   21288.44659812 -.00000010  00000-0  00000-0 0  9996
2 40889  55.7931 268.7285 0004497 344.3836  15.5845  1.70474829 37936
GSAT0206 (PRN E30)      
1 40890U 15045B   21288.07948333 -.00000006  00000-0  00000-0 0  9991
2 40890  55.7924 268.7348 0003530 321.6521  38.3062  1.70474809 37950
GSAT0209 (PRN E09)      
1 41174U 15079A   21286.49580824  .00000023  00000-0  00000+0 0  9992
2 41174  55.0848 148.1926 0002839 339.0997  20.9777  1.70472812 36241
GSAT0208 (PRN E08)      
1 41175U 15079B   21287.88865004  .00000029  00000-0  00000-0 0  9990
2 41175  55.0835 148.1533 0002158 349.5687  10.5187  1.70472907 36108
GSAT0211 (PRN E02)      
1 41549U 16030A   21286.83502435  .00000004  00000-0  00000-0 0  9996
2 41549  55.9376 268.6760 0005135 306.6230  53.3161  1.70474553 33561
GSAT0210 (PRN E01)      
1 41550U 16030B   21286.54116972  .00000006  00000-0  00000-0 0  9995
2 41550  55.9377 268.6857 0004940 282.8100  77.1214  1.70474593 33551
GSAT0207 (PRN E07)      
1 41859U 16069A   21287.96151770  .00000028  00000-0  00000-0 0  9995
2 41859  54.7447 148.3942 0002348 317.5895  42.4844  1.70472863 30317
GSAT0212 (PRN E03)      
1 41860U 16069B   21288.98812621  .00000035  00000-0  00000+0 0  9996
2 41860  54.7426 148.3639 0002282   8.1429 351.9573  1.70472865 30580
GSAT0213 (PRN E04)      
1 41861U 16069C   21288.76707366  .00000033  00000-0  00000-0 0  9991
2 41861  54.7448 148.3747 0001598 271.9845  88.0926  1.70473044 30441
GSAT0214 (PRN E05)      
1 41862U 16069D   21287.15440503  .00000024  00000-0  00000+0 0  9990
2 41862  54.7426 148.4143 0000800 290.2633  69.8178  1.70473075 30544
GSAT0215 (PRN E21)      
1 43055U 17079A   21288.23114124 -.00000007  00000-0  00000-0 0  9998
2 43055  55.9122 268.4738 0004282 279.6175  80.3166  1.70473755 23901
GSAT0216 (PRN E25)      
1 43056U 17079B   21289.11012558 -.00000015  00000-0  00000-0 0  9994
2 43056  55.9119 268.4492 0006038 279.9484  79.9618  1.70473927 23932
GSAT0217 (PRN E27)      
1 43057U 17079C   21288.15712911 -.00000007  00000-0  00000-0 0  9999
2 43057  55.9106 268.4756 0005604 289.1965  70.7256  1.70473885 23904
GSAT0218 (PRN E31)      
1 43058U 17079D   21287.79056612 -.00000004  00000-0  00000-0 0  9995
2 43058  55.9112 268.4830 0006489 276.2108  83.6993  1.70473854 23922
GSAT0221 (PRN E15)      
1 43564U 18060A   21288.27575837 -.00000102  00000-0  00000-0 0  9996
2 43564  57.0752  27.8341 0003887 249.3694 110.5957  1.70476116 20089
GSAT0222 (PRN E33)      
1 43565U 18060B   21286.14927180 -.00000093  00000-0  00000-0 0  9992
2 43565  57.0767  27.8919 0003218 254.9856 104.9896  1.70476074 20090
GSAT0219 (PRN E36)      
1 43566U 18060C   21286.95643085 -.00000097  00000-0  00000-0 0  9995
2 43566  57.0779  27.8720 0002928 252.7585 107.2186  1.70476067 20085
GSAT0220 (PRN E13)      
1 43567U 18060D   21288.34952860 -.00000102  00000-0  00000-0 0  9992
2 43567  57.0778  27.8339 0003199 247.9357 112.0369  1.70475879 20093
